[{"OBJECT_NAME":"STARLINK-1215","OBJECT_ID":"2020-012AZ","EPOCH":"2026-03-09T23:34:27.559488","MEAN_MOTION":15.30203883,"ECCENTRICITY":0.00013943,"INCLINATION":53.1616,"RA_OF_ASC_NODE":356.9455,"ARG_OF_PERICENTER":74.9207,"MEAN_ANOMALY":285.1948,"EPHEMERIS_TYPE":0,"CLASSIFICATION_TYPE":"U","NORAD_CAT_ID":45225,"ELEMENT_SET_NO":999,"REV_AT_EPOCH":33552,"BSTAR":0.00012456515,"MEAN_MOTION_DOT":3.332e-5,"MEAN_MOTION_DDOT":0},{"OBJECT_NAME":"LYNK TOWER 4","OBJECT_ID":"2023-001AB","EPOCH":"2026-03-09T16:15:30.644928","MEAN_MOTION":15.31819885,"ECCENTRICITY":0.00103213,"INCLINATION":97.3324,"RA_OF_ASC_NODE":128.594,"ARG_OF_PERICENTER":112.3386,"MEAN_ANOMALY":247.895,"EPHEMERIS_TYPE":0,"CLASSIFICATION_TYPE":"U","NORAD_CAT_ID":55034,"ELEMENT_SET_NO":999,"REV_AT_EPOCH":17658,"BSTAR":0.00030013829,"MEAN_MOTION_DOT":9.16e-5,"MEAN_MOTION_DDOT":0}]
